IRIDIUM 112             
1 41925U 17003J   25204.59359090  .00000006  00000+0 -49495-5 0  9997
2 41925  86.3952 225.5522 0002268  90.9415 269.2040 14.34217715446175
IRIDIUM 111             
1 41926U 17003K   25204.58090185 -.00000017  00000+0 -12983-4 0  9998
2 41926  86.3954 225.6209 0002005  90.0201 270.1224 14.34217132446150
IRIDIUM 113             
1 42803U 17039A   25204.77017633  .00000062  00000+0  15163-4 0  9991
2 42803  86.3961  99.4725 0002374  81.0296 279.1169 14.34217863424116
IRIDIUM 123             
1 42804U 17039B   25204.53257984  .00000019  00000+0 -18165-6 0  9991
2 42804  86.4001 131.0428 0001829  79.4812 280.6590 14.34217592422847
IRIDIUM 120             
1 42805U 17039C   25204.62429597  .00000032  00000+0  42945-5 0  9999
2 42805  86.3949  99.3584 0001913  89.4453 270.6962 14.34217438424082
IRIDIUM 115             
1 42806U 17039D   25204.76771797  .00000355  00000+0  99425-4 0  9999
2 42806  86.4487  99.3824 0001563  75.2012 284.9362 14.43280580426894
IRIDIUM 118             
1 42807U 17039E   25204.49452537  .00000053  00000+0  11871-4 0  9992
2 42807  86.4000 131.0582 0002390  81.7026 278.4441 14.34217707422834
IRIDIUM 117             
1 42808U 17039F   25204.30424645  .00000238  00000+0  78006-4 0  9990
2 42808  86.3999 131.0986 0002112  78.6096 281.5337 14.34218014422834
